{
  "type": "FeatureCollection",
  "features": [
    {
      "type": "Feature",
      "properties": {
        "norad_id": 22490,
        "name": "SCD 1",
        "group": "resource",
        "lat": 8.767085241232467,
        "lon": 29.665253295753356,
        "alt_km": 744.9734881475797,
        "timestamp": "2025-12-20T18:51:31.374317+00:00",
        "meta_object_name": "SCD 1",
        "meta_object_id": "1993-009B",
        "meta_epoch": "2025-12-20T02:06:40.199328",
        "meta_mean_motion": 14.46003712,
        "meta_eccentricity": 0.00420998,
        "meta_inclination": 24.9683,
        "meta_ra_of_asc_node": 233.3258,
        "meta_arg_of_pericenter": 42.7923,
        "meta_mean_anomaly": 75.5892,
        "meta_ephemeris_type": 0,
        "meta_classification_type": "U",
        "meta_norad_cat_id": 22490,
        "meta_element_set_no": 999,
        "meta_rev_at_epoch": 73516,
        "meta_bstar": 6.2477864e-05,
        "meta_mean_motion_dot": 4.13e-06,
        "meta_mean_motion_ddot": 0,
        "tle_line1": "1 22490U 93009B   25354.08796527  .00000413  00000+0  62478-4 0  9999",
        "tle_line2": "2 22490  24.9683 233.3258 0042099  42.7923  75.5892 14.46003712735164"
      },
      "geometry": {
        "type": "Point",
        "coordinates": [
          29.665253295753356,
          8.767085241232467
        ]
      }
    },
    {
      "type": "Feature",
      "properties": {
        "norad_id": 25397,
        "name": "TECHSAT 1B (GO-32)",
        "group": "resource",
        "lat": 3.947454741862544,
        "lon": -22.442340495750376,
        "alt_km": 811.96491199502,
        "timestamp": "2025-12-20T18:51:31.374365+00:00",
        "meta_object_name": "TECHSAT 1B (GO-32)",
        "meta_object_id": "1998-043D",
        "meta_epoch": "2025-12-20T12:05:47.212224",
        "meta_mean_motion": 14.24379082,
        "meta_eccentricity": 0.00018144,
        "meta_inclination": 98.9927,
        "meta_ra_of_asc_node": 337.8955,
        "meta_arg_of_pericenter": 45.0313,
        "meta_mean_anomaly": 315.1012,
        "meta_ephemeris_type": 0,
        "meta_classification_type": "U",
        "meta_norad_cat_id": 25397,
        "meta_element_set_no": 999,
        "meta_rev_at_epoch": 42589,
        "meta_bstar": 3.7447848e-05,
        "meta_mean_motion_dot": 4e-07,
        "meta_mean_motion_ddot": 0,
        "tle_line1": "1 25397U 98043D   25354.50401866  .00000040  00000+0  37448-4 0  9992",
        "tle_line2": "2 25397  98.9927 337.8955 0001814  45.0313 315.1012 14.24379082425893"
      },
      "geometry": {
        "type": "Point",
        "coordinates": [
          -22.442340495750376,
          3.947454741862544
        ]
      }
    },
    {
      "type": "Feature",
      "properties": {
        "norad_id": 25504,
        "name": "SCD 2",
        "group": "resource",
        "lat": 2.6330821508853224,
        "lon": -93.38183330415146,
        "alt_km": 746.8293250474981,
        "timestamp": "2025-12-20T18:51:31.374381+00:00",
        "meta_object_name": "SCD 2",
        "meta_object_id": "1998-060A",
        "meta_epoch": "2025-12-20T14:51:05.311872",
        "meta_mean_motion": 14.45427239,
        "meta_eccentricity": 0.00169754,
        "meta_inclination": 24.9946,
        "meta_ra_of_asc_node": 93.3121,
        "meta_arg_of_pericenter": 36.8974,
        "meta_mean_anomaly": 346.0798,
        "meta_ephemeris_type": 0,
        "meta_classification_type": "U",
        "meta_norad_cat_id": 25504,
        "meta_element_set_no": 999,
        "meta_rev_at_epoch": 43446,
        "meta_bstar": 4.6832845e-05,
        "meta_mean_motion_dot": 3.49e-06,
        "meta_mean_motion_ddot": 0,
        "tle_line1": "1 25504U 98060A   25354.61881148  .00000349  00000+0  46833-4 0  9998",
        "tle_line2": "2 25504  24.9946  93.3121 0016975  36.8974 346.0798 14.45427239434465"
      },
      "geometry": {
        "type": "Point",
        "coordinates": [
          -93.38183330415146,
          2.6330821508853224
        ]
      }
    },
    {
      "type": "Feature",
      "properties": {
        "norad_id": 25757,
        "name": "DLR-TUBSAT",
        "group": "resource",
        "lat": -47.64940616810906,
        "lon": -10.831157015574178,
        "alt_km": 732.856793398867,
        "timestamp": "2025-12-20T18:51:31.374394+00:00",
        "meta_object_name": "DLR-TUBSAT",
        "meta_object_id": "1999-029B",
        "meta_epoch": "2025-12-17T13:22:10.787520",
        "meta_mean_motion": 14.52359578,
        "meta_eccentricity": 0.00141996,
        "meta_inclination": 98.6566,
        "meta_ra_of_asc_node": 336.2196,
        "meta_arg_of_pericenter": 177.8976,
        "meta_mean_anomaly": 182.2281,
        "meta_ephemeris_type": 0,
        "meta_classification_type": "U",
        "meta_norad_cat_id": 25757,
        "meta_element_set_no": 999,
        "meta_rev_at_epoch": 40688,
        "meta_bstar": 3.7650132e-05,
        "meta_mean_motion_dot": 1.05e-06,
        "meta_mean_motion_ddot": 0,
        "tle_line1": "1 25757U 99029B   25351.55706930  .00000105  00000+0  37650-4 0  9996",
        "tle_line2": "2 25757  98.6566 336.2196 0014199 177.8976 182.2281 14.52359578406886"
      },
      "geometry": {
        "type": "Point",
        "coordinates": [
          -10.831157015574178,
          -47.64940616810906
        ]
      }
    },
    {
      "type": "Feature",
      "properties": {
        "norad_id": 25994,
        "name": "TERRA",
        "group": "resource",
        "lat": -78.43033764047227,
        "lon": -177.0353812774101,
        "alt_km": 700.075241887851,
        "timestamp": "2025-12-20T18:51:31.374407+00:00",
        "meta_object_name": "TERRA",
        "meta_object_id": "1999-068A",
        "meta_epoch": "2025-12-20T13:13:34.824864",
        "meta_mean_motion": 14.60909835,
        "meta_eccentricity": 0.00035383,
        "meta_inclination": 97.9737,
        "meta_ra_of_asc_node": 45.9485,
        "meta_arg_of_pericenter": 79.0674,
        "meta_mean_anomaly": 28.9885,
        "meta_ephemeris_type": 0,
        "meta_classification_type": "U",
        "meta_norad_cat_id": 25994,
        "meta_element_set_no": 999,
        "meta_rev_at_epoch": 38352,
        "meta_bstar": 7.318996e-05,
        "meta_mean_motion_dot": 3.14e-06,
        "meta_mean_motion_ddot": 0,
        "tle_line1": "1 25994U 99068A   25354.55109751  .00000314  00000+0  73190-4 0  9994",
        "tle_line2": "2 25994  97.9737  45.9485 0003538  79.0674  28.9885 14.60909835383526"
      },
      "geometry": {
        "type": "Point",
        "coordinates": [
          -177.0353812774101,
          -78.43033764047227
        ]
      }
    },
    {
      "type": "Feature",
      "properties": {
        "norad_id": 27004,
        "name": "MAROC-TUBSAT",
        "group": "resource",
        "lat": 30.460770213539156,
        "lon": -10.799585257292266,
        "alt_km": 996.8533876449101,
        "timestamp": "2025-12-20T18:51:31.374419+00:00",
        "meta_object_name": "MAROC-TUBSAT",
        "meta_object_id": "2001-056D",
        "meta_epoch": "2025-12-20T11:25:13.051200",
        "meta_mean_motion": 13.70253266,
        "meta_eccentricity": 0.00191788,
        "meta_inclination": 99.7915,
        "meta_ra_of_asc_node": 163.0563,
        "meta_arg_of_pericenter": 239.6047,
        "meta_mean_anomaly": 181.4763,
        "meta_ephemeris_type": 0,
        "meta_classification_type": "U",
        "meta_norad_cat_id": 27004,
        "meta_element_set_no": 999,
        "meta_rev_at_epoch": 20171,
        "meta_bstar": 1.6498076e-05,
        "meta_mean_motion_dot": -3.2e-07,
        "meta_mean_motion_ddot": 0,
        "tle_line1": "1 27004U 01056D   25354.47584550 -.00000032  00000+0  16498-4 0  9999",
        "tle_line2": "2 27004  99.7915 163.0563 0019178 239.6047 181.4763 13.70253266201712"
      },
      "geometry": {
        "type": "Point",
        "coordinates": [
          -10.799585257292266,
          30.460770213539156
        ]
      }
    },
    {
      "type": "Feature",
      "properties": {
        "norad_id": 27424,
        "name": "AQUA",
        "group": "resource",
        "lat": 16.362886225955904,
        "lon": 138.28390905850767,
        "alt_km": 687.3523378061591,
        "timestamp": "2025-12-20T18:51:31.374431+00:00",
        "meta_object_name": "AQUA",
        "meta_object_id": "2002-022A",
        "meta_epoch": "2025-12-19T19:17:33.406368",
        "meta_mean_motion": 14.61824191,
        "meta_eccentricity": 0.00013487,
        "meta_inclination": 98.4046,
        "meta_ra_of_asc_node": 314.798,
        "meta_arg_of_pericenter": 112.3467,
        "meta_mean_anomaly": 286.6091,
        "meta_ephemeris_type": 0,
        "meta_classification_type": "U",
        "meta_norad_cat_id": 27424,
        "meta_element_set_no": 999,
        "meta_rev_at_epoch": 25706,
        "meta_bstar": 0.00015509968,
        "meta_mean_motion_dot": 7.25e-06,
        "meta_mean_motion_ddot": 0,
        "tle_line1": "1 27424U 02022A   25353.80385887  .00000725  00000+0  15510-3 0  9998",
        "tle_line2": "2 27424  98.4046 314.7980 0001348 112.3467 286.6091 14.61824191257063"
      },
      "geometry": {
        "type": "Point",
        "coordinates": [
          138.28390905850767,
          16.362886225955904
        ]
      }
    }
  ]
}